OBJECT_NAME,OBJECT_ID,EPOCH,MEAN_MOTION,ECCENTRICITY,INCLINATION,RA_OF_ASC_NODE,ARG_OF_PERICENTER,MEAN_ANOMALY,EPHEMERIS_TYPE,CLASSIFICATION_TYPE,NORAD_CAT_ID,ELEMENT_SET_NO,REV_AT_EPOCH,BSTAR,MEAN_MOTION_DOT,MEAN_MOTION_DDOT
BLUEWALKER-3,2022-111AL,2026-07-22T18:42:04.411872,15.38668225,.00047896,53.2275,226.8231,299.0530,60.9995,0,U,53807,999,21568,.13556107E-3,.4863E-4,0
